#dP2023 11 30  6  0  0.00000000      96 __u+U IGS20 EXT  IAC
## 2290 367200.00000000   900.00000000 60278 0.2500000000000
+  117   C06C07C08C09C10C11C12C13C14C16C19C20C21C22C23C24C25
+        C26C27C28C29C30C32C33C34C35C37C38C39C40C41C42C43C44
+        C45C46E02E03E04E05E07E08E09E10E11E12E13E15E18E19E21
+        E24E25E26E27E30E31E33E34E36G01G03G04G05G06G07G08G09
+        G10G11G12G13G14G15G16G17G18G19G20G21G22G23G24G25G26
+        G27G28G29G30G31G32J02J03J04R01R02R03R04R05R07R08R09
+        R11R12R13R14R15R16R17R18R19R20R21R22R24R25R26  0  0
++         9 10 11 10  9  9  9 10  8 10  8  8  9  9  8  8  7
++         8  8  8  8  7  9  8  7  9  8  9 10 10  9  6  8  9
++         9  7  7  7  8  7  7  7  8  7  7  8  6  7  8  8  8
++         8  8  8  8  8  9  7  7  7  6  7  7  7  7  7  7  7
++         8  7  8  7  8  7  7  8  8  7  7  6  8  8  7  7  9
++         8  7  7  7  7  7  9  9  9  9  7  7  7  8  7  8  9
++         8  8  8  9  7  8  9  8  7  9  9  8  8  8  9  0  0
%c M  cc GPS ccc cccc cccc cccc cccc ccccc ccccc ccccc ccccc
%c cc cc ccc ccc cccc cccc cccc cccc ccccc ccccc ccccc ccccc
%f  0.0000000  0.000000000  0.00000000000  0.000000000000000
%f  0.0000000  0.000000000  0.00000000000  0.000000000000000
%i    0    0    0    0      0      0      0      0         0
%i    0    0    0    0      0      0      0      0         0
/* IAC                                ULTRA-RAPID PREDICTION
/* S/V CLOCKS ARE ALIGNED TO GNSS TIME                      
/* G:C1WC2W R:C1PC2P E:C1XC5X C:C2IC6I J:C1CC2S             
/* PCV:IGS20_2287 OL/AL:FES2004  NONE     YN ORB:CoN CLK:CoN
*  2023 11 30  9 30  0.00000000
PC06 -18693.323214  32930.261714  18263.967567     47.332935
PC07  -4008.898367  37959.128811  18211.772561   -399.460813
PC08  -5410.780928  19659.801619 -36908.650102    209.992516
PC09  -9515.463610  31317.466210  26677.305340   -155.569791
PC10   3149.220092  40785.762577  11654.842760    -35.776791
PC11   4163.880412 -23337.965844  14785.498204    282.114879
PC12  16977.238400 -21957.046836  -2816.591447    841.451939
PC13   1004.935032  22517.871056 -35446.501613    389.587957
PC14  -6765.870896 -25634.826605   8635.270445    886.292092
PC16 -20909.848910  32702.303685  16316.118753   -201.582826
PC19  13242.188901  24567.219771    581.766829   -960.228096
PC20    639.596035  23436.623847 -15147.295495     71.531449
PC21  13533.467346  -7900.448504  23098.623081   -969.487513
PC22  18927.644589  11680.141762  16857.101275   -205.092906
PC23 -26222.072748  -6337.226563  -7165.505618   -811.922342
PC24   9180.924140 -15178.617637 -21554.531664    646.522686
PC25 -13125.400133 -14573.502191 -19873.031240    267.289669
PC26  24548.238787  -7406.295457 -10987.820433   -213.469863
PC27 -19751.541980  16444.166482  10848.956114    235.441080
PC28 -17921.459138    110.821839  21401.267653    177.906300
PC29   5044.894605  18864.377343 -19935.450599    208.211061
PC30 -10597.234472  25224.643762  -5443.681712     -9.381565
PC32 -13529.262878   7907.952555 -23081.635276   -538.603258
PC33 -13318.131814 -24513.418332   -447.851905   -942.863536
PC34   9564.193547 -25324.263130   6813.810852    314.572801
PC35  18006.996238   -844.748034 -21317.633554    491.431913
PC37 -25107.105404   6421.077993  10396.007493   -905.727104
PC38 -14501.403400  18980.408660 -34737.707477    121.008298
PC39 -22439.265882  33538.772008  11839.499510     -5.869255
PC40  -8101.811959  35321.593481  21803.544190    -45.977585
PC41 -18976.029064 -12345.953639 -16266.892405   -872.026023
PC42    632.338857 -22660.075381  16298.893885   -489.430092
PC43  -4353.675695 -19567.338469  19417.071018     50.373142
PC44  19228.168271 -17009.937750 -10984.660956    308.405302
PC45  26404.666612   6002.894966   6677.452624    -50.779463
PC46  -8056.602038  15283.632792  21912.808896   -103.767881
PE02 -17099.802726 -21586.520436 -10887.171707     82.695664
PE03  -7411.095080 -25063.085960 -13899.900061    -76.910694
PE04  16174.604172   6658.169826  23878.274235   -269.210380
PE05   5586.478802 -28783.748993   4066.066329   4695.884204
PE07 -15550.593730  15259.781218 -20041.702863    -90.526511
PE08 -15910.918370  -7293.764023 -23877.297484   -184.881858
PE09  15454.461398 -15138.114824  20193.695784   -245.997399
PE10  27603.328138  -6940.586269  -8108.374180   -582.750917
PE11  26185.536755 -13604.852790   2375.134610   3241.481382
PE12  24797.795873    201.911979 -16165.891765   -798.636060
PE13 -26424.771425  13234.722473  -1644.371984    -19.629207
PE15 -24505.989234   -530.968778  16605.899345    -72.233664
PE18  12291.896054 -20076.216482 -10384.046598     40.567989
PE19   5705.277201  26462.936318  11964.330759  -1111.098638
PE21   -808.396439  18782.485690  22859.731502   -566.585063
PE24  19468.547498  -4552.065476 -21833.934362   -459.802453
PE25   1184.561643 -18615.882951 -22982.102172     -2.664360
PE26 -12163.201712  19156.465762 -18998.874545    295.867020
PE27 -19117.855692   4958.834240  22052.607494   -212.502089
PE30 -25900.825249 -11944.608206   7940.593992   -703.558213
PE31  25935.655580  11617.975298  -8257.820346    -10.874923
PE33   7632.445861  14084.196601 -24880.610058      3.326351
PE34  -8313.325924 -13759.535021  24857.118555    -80.755442
PE36  12854.787346 -19053.741502  18662.275476   -151.126510
PG01  -4105.217553  16514.687787 -20647.899511    163.440837
PG03   5261.233700  18757.692884 -18246.801794     20.794429
PG04   -698.608185  26190.648400   3910.954357    226.811172
PG05   7904.289530 -12691.710903  21774.337457   -152.324681
PG06  24863.235331  -5426.060474  -7715.053832    491.907016
PG07  13895.094276  10075.898619  20857.331554      0.199748
PG08  -5210.770737  25309.215002   5021.115484   -154.598151
PG09   7985.146773  21351.305269  13496.317503     12.352379
PG10 -23356.839552  -9874.993600  -8255.233923    -63.416099
PG11  23364.596606 -12027.111353   3684.406782   -481.541901
PG12  -2699.521031 -19004.514001 -18669.039574   -452.455404
PG13  13222.172129 -19277.772629  12199.029456    600.719246
PG14  22882.474984  12647.238920  -5166.158926    257.652677
PG15   1988.682355 -25898.623376   4462.328534    102.207349
PG16 -14386.412793   6882.657459  20993.515904   -412.938873
PG17  13239.937068   8254.944542 -21038.340936    722.678076
PG18 -14934.514975  -8549.704629  20295.579942   -493.451045
PG19  15433.598154  -1239.747270 -21731.770212    405.950622
PG20  18912.326007  -5085.589774  17909.733952    399.041516
PG21 -12890.912146  18041.224492 -13380.440298    142.890486
PG22  21996.259031   8167.952652 -11721.121129     74.582671
PG23 -20389.091905 -16761.069237   3783.546379    107.674722
PG24   8309.045701 -19024.779921 -16727.797201   -382.975302
PG25 -14844.278673 -19573.181910 -10766.337383    479.564779
PG26 -21239.548260    987.352266  16000.323807    212.947055
PG27 -12627.562468  16537.111391  15997.538099    -76.853157
PG28 -24318.955528   4508.941652  -9709.738209    -58.155370
PG29  -5371.186952 -22226.511849  13381.078598   -610.050109
PG30  21921.011076   2371.700193  15116.297968   -462.738391
PG31 -25032.234016   9416.869855  -1710.383315   -226.196659
PG32 -14803.075162  -3774.253916 -21553.889440   -591.449160
PJ02 -26542.228695  21751.828926  29633.896189     -0.349275
PJ03 -34610.041927  23761.339750   1010.890721    -10.095823
PJ04 -20046.686409  26043.644130 -21365.124237     73.249187
PR01  12659.012464   5627.450781  21416.388223     71.029694
PR02   6499.443718 -12806.263133  21140.174655    -22.316174
PR03  -3117.438423 -23878.137894   8555.202231     90.003356
PR04 -10519.815854 -21659.839662  -8426.197739    213.232179
PR05 -12394.211355  -7837.778434 -20873.718324    123.065280
PR07   3583.624591  24029.607608  -7641.861086     70.285582
PR08  10818.725284  21385.532244   8731.076823    -73.477713
PR09 -17027.243550   5759.343075  18077.975567    156.081739
PR11  16749.965175  11204.452414  15655.578789   -217.113562
PR12  24997.284290   4291.538049  -2611.801542     33.973544
PR13  18844.533014  -4211.401997 -16681.697597    -41.827035
PR14   -372.395036 -11406.197211 -22803.443020     25.660079
PR15 -17774.507307 -11131.520598 -14502.617752     84.368063
PR16 -25019.303748  -4283.781599   2353.694262     21.100490
PR17   9030.149132 -19093.809178  14285.486963     39.398691
PR18  -4282.831898 -10444.307460  22901.620232    114.506974
PR19 -14945.483165   1778.782115  20604.115782   -256.533178
PR20 -19160.964554  16412.505495   3648.102329   -104.395524
PR21  -8806.510052  18858.585115 -14759.643807    -57.332069
PR22   5126.936331  10072.749916 -22834.318734     95.990613
PR24  18407.323387 -17390.827233  -2958.275446    -34.105607
PR25  -9735.053020  18843.827939 -14177.434995     -2.953456
PR26  10734.648744  21716.206812   8034.374170    -14.444402
EOF
